[Satellite]
VERSION=1.1
NAME=FLOCK 3P-75
NICKNAME=FLOCK 3P-75
TLE1=1 41979U 17008AH  18020.87889999  .00003097  00000-0  13143-3 0  9998
TLE2=2 41979  97.4717  86.6196 0009404 144.7762 215.4098 15.23817987 51669
